{"fetched_at":"2026-07-14T06:34:27.310Z","source":"https://celestrak.org/NORAD/elements/gp.php?GROUP=spire&FORMAT=JSON","constellation":"spire","records":[{"OBJECT_NAME":"LEMUR-2-MYRA","OBJECT_ID":"2025-276EC","EPOCH":"2026-07-13T17:40:00.016320","CLASSIFICATION_TYPE":"U","MEAN_MOTION":15.00579015,"ECCENTRICITY":0.001866,"INCLINATION":97.5223,"RA_OF_ASC_NODE":264.7511,"ARG_OF_PERICENTER":58.6912,"MEAN_ANOMALY":301.6136,"EPHEMERIS_TYPE":0,"NORAD_CAT_ID":66787,"ELEMENT_SET_NO":999,"REV_AT_EPOCH":3419,"BSTAR":0.00028113,"MEAN_MOTION_DOT":0.00003504,"MEAN_MOTION_DDOT":0},{"OBJECT_NAME":"LEMUR-2 FIKRETDENGIZ","OBJECT_ID":"2026-004A","EPOCH":"2026-07-13T13:18:21.710016","CLASSIFICATION_TYPE":"U","MEAN_MOTION":14.88510256,"ECCENTRICITY":0.0010286,"INCLINATION":97.8023,"RA_OF_ASC_NODE":192.7112,"ARG_OF_PERICENTER":60.4075,"MEAN_ANOMALY":299.8165,"EPHEMERIS_TYPE":0,"NORAD_CAT_ID":67363,"ELEMENT_SET_NO":999,"REV_AT_EPOCH":2720,"BSTAR":0.00025184,"MEAN_MOTION_DOT":0.00002288,"MEAN_MOTION_DDOT":0},{"OBJECT_NAME":"TWILIGHT-1 OBJECT B","OBJECT_ID":"2026-004B","EPOCH":"2026-07-13T12:33:51.391872","CLASSIFICATION_TYPE":"U","MEAN_MOTION":14.87790232,"ECCENTRICITY":0.0009855,"INCLINATION":97.8074,"RA_OF_ASC_NODE":192.6825,"ARG_OF_PERICENTER":50.7792,"MEAN_ANOMALY":309.4298,"EPHEMERIS_TYPE":0,"NORAD_CAT_ID":67364,"ELEMENT_SET_NO":999,"REV_AT_EPOCH":2720,"BSTAR":0.00010933,"MEAN_MOTION_DOT":0.00000944,"MEAN_MOTION_DDOT":0},{"OBJECT_NAME":"LEMUR-2-MARIO-SOUSA","OBJECT_ID":"2026-004C","EPOCH":"2026-07-13T12:49:41.776320","CLASSIFICATION_TYPE":"U","MEAN_MOTION":14.88718766,"ECCENTRICITY":0.0009922,"INCLINATION":97.7996,"RA_OF_ASC_NODE":192.6866,"ARG_OF_PERICENTER":61.6788,"MEAN_ANOMALY":298.5429,"EPHEMERIS_TYPE":0,"NORAD_CAT_ID":67365,"ELEMENT_SET_NO":999,"REV_AT_EPOCH":2721,"BSTAR":0.00028474,"MEAN_MOTION_DOT":0.00002607,"MEAN_MOTION_DDOT":0},{"OBJECT_NAME":"LEMUR-2-SONNENBLUME","OBJECT_ID":"2026-004E","EPOCH":"2026-07-13T12:53:21.967584","CLASSIFICATION_TYPE":"U","MEAN_MOTION":14.88448243,"ECCENTRICITY":0.0009486,"INCLINATION":97.8,"RA_OF_ASC_NODE":192.6626,"ARG_OF_PERICENTER":62.7623,"MEAN_ANOMALY":297.4559,"EPHEMERIS_TYPE":0,"NORAD_CAT_ID":67367,"ELEMENT_SET_NO":999,"REV_AT_EPOCH":2721,"BSTAR":0.00016492,"MEAN_MOTION_DOT":0.00001477,"MEAN_MOTION_DDOT":0},{"OBJECT_NAME":"LEMUR-2-WOBLER","OBJECT_ID":"2026-004F","EPOCH":"2026-07-13T19:05:29.230080","CLASSIFICATION_TYPE":"U","MEAN_MOTION":14.88691368,"ECCENTRICITY":0.0009556,"INCLINATION":97.8046,"RA_OF_ASC_NODE":193.0665,"ARG_OF_PERICENTER":54.1802,"MEAN_ANOMALY":306.0302,"EPHEMERIS_TYPE":0,"NORAD_CAT_ID":67368,"ELEMENT_SET_NO":999,"REV_AT_EPOCH":2725,"BSTAR":0.00022857,"MEAN_MOTION_DOT":0.0000208,"MEAN_MOTION_DDOT":0},{"OBJECT_NAME":"LEMUR-2-GRAM-E-SUE","OBJECT_ID":"2026-004H","EPOCH":"2026-07-13T12:26:49.672608","CLASSIFICATION_TYPE":"U","MEAN_MOTION":14.88584866,"ECCENTRICITY":0.00087,"INCLINATION":97.7986,"RA_OF_ASC_NODE":192.6609,"ARG_OF_PERICENTER":65.4084,"MEAN_ANOMALY":294.8038,"EPHEMERIS_TYPE":0,"NORAD_CAT_ID":67370,"ELEMENT_SET_NO":999,"REV_AT_EPOCH":2721,"BSTAR":0.00014215,"MEAN_MOTION_DOT":0.00001269,"MEAN_MOTION_DDOT":0},{"OBJECT_NAME":"LEMUR-2-KATIE","OBJECT_ID":"2026-004AA","EPOCH":"2026-07-13T13:04:13.897056","CLASSIFICATION_TYPE":"U","MEAN_MOTION":14.90242123,"ECCENTRICITY":0.0003635,"INCLINATION":97.8042,"RA_OF_ASC_NODE":193.2324,"ARG_OF_PERICENTER":38.0849,"MEAN_ANOMALY":322.0625,"EPHEMERIS_TYPE":0,"NORAD_CAT_ID":67387,"ELEMENT_SET_NO":999,"REV_AT_EPOCH":2723,"BSTAR":0.0003119,"MEAN_MOTION_DOT":0.00002971,"MEAN_MOTION_DDOT":0},{"OBJECT_NAME":"LEMUR-2-HCS-BAZUS","OBJECT_ID":"2026-004AB","EPOCH":"2026-07-13T13:01:52.912128","CLASSIFICATION_TYPE":"U","MEAN_MOTION":14.90256181,"ECCENTRICITY":0.0003154,"INCLINATION":97.8038,"RA_OF_ASC_NODE":193.2094,"ARG_OF_PERICENTER":36.4661,"MEAN_ANOMALY":323.6771,"EPHEMERIS_TYPE":0,"NORAD_CAT_ID":67388,"ELEMENT_SET_NO":999,"REV_AT_EPOCH":2723,"BSTAR":0.00017207,"MEAN_MOTION_DOT":0.00001614,"MEAN_MOTION_DDOT":0}]}
